CSC-2                   
1 58021U 23155F   26068.78622407  .00012305  00000+0  57637-3 0  9991
2 58021  97.5491 145.3107 0004628 207.4869 152.6121 15.19850023133076
TOMORROW-S6             
1 63225U 25052R   26068.69470832  .00005362  00000+0  24125-3 0  9995
2 63225  97.4118 323.1250 0006823 114.9559 245.2387 15.21501626 54716
