[{"OBJECT_NAME":"CSC-2","OBJECT_ID":"2023-155F","EPOCH":"2026-03-09T18:52:09.760512","MEAN_MOTION":15.19850023,"ECCENTRICITY":0.00046278,"INCLINATION":97.5491,"RA_OF_ASC_NODE":145.3107,"ARG_OF_PERICENTER":207.4869,"MEAN_ANOMALY":152.6121,"EPHEMERIS_TYPE":0,"CLASSIFICATION_TYPE":"U","NORAD_CAT_ID":58021,"ELEMENT_SET_NO":999,"REV_AT_EPOCH":13307,"BSTAR":0.00057636631,"MEAN_MOTION_DOT":0.00012305,"MEAN_MOTION_DDOT":0},{"OBJECT_NAME":"TOMORROW-S6","OBJECT_ID":"2025-052R","EPOCH":"2026-03-09T16:40:22.799712","MEAN_MOTION":15.21501626,"ECCENTRICITY":0.00068231,"INCLINATION":97.4118,"RA_OF_ASC_NODE":323.125,"ARG_OF_PERICENTER":114.9559,"MEAN_ANOMALY":245.2387,"EPHEMERIS_TYPE":0,"CLASSIFICATION_TYPE":"U","NORAD_CAT_ID":63225,"ELEMENT_SET_NO":999,"REV_AT_EPOCH":5471,"BSTAR":0.00024124683,"MEAN_MOTION_DOT":5.362e-5,"MEAN_MOTION_DDOT":0}]
